[{"OBJECT_NAME":"OBJECT B","OBJECT_ID":"2024-203B","EPOCH":"2026-03-09T23:52:52.928256","MEAN_MOTION":15.27506959,"ECCENTRICITY":0.00103904,"INCLINATION":97.4268,"RA_OF_ASC_NODE":139.5887,"ARG_OF_PERICENTER":321.1475,"MEAN_ANOMALY":38.9016,"EPHEMERIS_TYPE":0,"CLASSIFICATION_TYPE":"U","NORAD_CAT_ID":61870,"ELEMENT_SET_NO":999,"REV_AT_EPOCH":7381,"BSTAR":0.00063263842,"MEAN_MOTION_DOT":0.00016997,"MEAN_MOTION_DDOT":0},{"OBJECT_NAME":"STARLINK-32943","OBJECT_ID":"2025-032U","EPOCH":"2026-03-09T04:16:08.774112","MEAN_MOTION":15.27596857,"ECCENTRICITY":0.00037679,"INCLINATION":43.0042,"RA_OF_ASC_NODE":338.7751,"ARG_OF_PERICENTER":242.451,"MEAN_ANOMALY":117.5959,"EPHEMERIS_TYPE":0,"CLASSIFICATION_TYPE":"U","NORAD_CAT_ID":63023,"ELEMENT_SET_NO":999,"REV_AT_EPOCH":6054,"BSTAR":0.0008796104,"MEAN_MOTION_DOT":0.00024037,"MEAN_MOTION_DDOT":0}]
